DISKSAT D               
1 67222U 25305D   25354.31483363  .00001252  00000+0  10184-3 0  9990
2 67222  45.0056 310.4150 0004477 287.6101  72.4284 15.05567005   317
ELECTRON KICK STAGE R/B 
1 67223U 25305E   25357.29083347  .00018707  00000+0  18366-3 0  9992
2 67223  44.9877 292.9264 0177490 166.6089 193.9601 15.48545747   794
ELECTRON R/B            
1 67224U 25305F   25352.76890193  .00172783  86369-5  22935-3 0  9995
2 67224  45.0188 318.3021 0262888 280.1207  77.0133 15.64663678    93
TJS-23                  
1 67226U 25306A   25355.35057138  .00003331  00000+0  71636-3 0  9996
2 67226  16.4010 298.8861 7754040 179.8382 143.9016  1.72705756    20
CZ-5 R/B                
1 67227U 25306B   25364.13237197  .00001991  00000+0  71754-3 0  9999
2 67227  16.3619 295.8611 7577901 184.7844 157.8104  1.92266467   207
QPS-SAR-15              
1 67228U 25307A   25364.57162821  .00009079  00000+0  78667-3 0  9995
2 67228  42.0071  72.6877 0009608 323.9215  36.0961 14.97168113  1395
ELECTRON KICK STAGE R/B 
1 67229U 25307B   25364.46998988  .00655920  13036-3  18920-2 0  9999
2 67229  42.0011  68.3731 0223435 302.2432  55.6937 15.62102641  1430
ELECTRON R/B            
1 67230U 25307C   25355.36249005  .00071881  81069-5  20248-3 0  9997
2 67230  41.9820 123.1026 0261408 268.1410  88.9482 15.55087105    19
BLUEBIRD 6              
1 67232U 25309A   25360.75210442  .00001165  00000+0  72651-4 0  9997
2 67232  53.0002  40.8851 0010477 329.2446  30.7932 15.17699903   405
LVM3 R/B                
1 67233U 25309B   25360.74928094  .00001231  00000+0  72627-4 0  9993
2 67233  52.9350  40.7629 0010474 355.6984   4.3917 15.19340101   404
2025-310A               
1 67234U 25310A   25363.31529228  .00002997  00000+0  13914-3 0  9991
2 67234  97.9653   8.0682 0151800  69.0443 292.6954 15.11166232   575
2025-310B               
1 67235U 25310B   25364.49367916  .00129049  22032-5  30187-3 0  9990
2 67235  97.9705   9.5182 0301017  59.2140 303.8374 15.49853307   766
